NORAD_CAT_ID,OBJECT_NAME,OBJECT_TYPE,EPOCH,MEAN_MOTION,ECCENTRICITY,INCLINATION,RA_OF_ASC_NODE,ARG_OF_PERICENTER,MEAN_ANOMALY,BSTAR,MEAN_MOTION_DOT,MEAN_MOTION_DDOT,TLE_LINE0,TLE_LINE1,TLE_LINE2,SEMIMAJOR_AXIS,PERIOD,APOGEE,PERIGEE,DECAYED
52868.0,STARLINK-4261,PAYLOAD,2024-02-20 13:02:52,15.08838087,0.0001194,53.2181,142.7086,91.3946,268.7183,7.1838e-05,8.56e-06,0.0,0 STARLINK-4261,1 52868U 22062AQ  24051.54366302  .00000856  00000-0  71838-4 0  9992,2 52868  53.2181 142.7086 0001194  91.3946 268.7183 15.08838087 92987,6917.886,95.438,540.577,538.925,0.0
52868.0,STARLINK-4261,PAYLOAD,2024-02-21 14:29:02,15.08841665,0.0001407,53.2185,137.9508,106.024,254.0907,0.00013375,1.841e-05,0.0,0 STARLINK-4261,1 52868U 22062AQ  24052.60350132  .00001841  00000-0  13375-3 0  9990,2 52868  53.2185 137.9508 0001407 106.0240 254.0907 15.08841665 93141,6917.875,95.437,540.714,538.767,0.0
52868.0,STARLINK-4261,PAYLOAD,2024-02-22 11:09:04,15.08835906,0.0001529,53.2183,134.0847,89.2429,270.8738,2.2401e-05,6.9e-07,0.0,0 STARLINK-4261,1 52868U 22062AQ  24053.46463072  .00000069  00000-0  22401-4 0  9995,2 52868  53.2183 134.0847 0001529  89.2429 270.8738 15.08835906 93766,6917.893,95.438,540.816,538.7,0.0
52868.0,STARLINK-4261,PAYLOAD,2024-02-22 12:44:27,15.08837265,0.0001572,53.2191,133.7869,78.6354,281.4814,4.0609e-05,3.58e-06,0.0,0 STARLINK-4261,1 52868U 22062AQ  24053.53086870  .00000358  00000-0  40609-4 0  9991,2 52868  53.2191 133.7869 0001572  78.6354 281.4814 15.08837265 93282,6917.889,95.438,540.841,538.666,0.0
52868.0,STARLINK-4261,PAYLOAD,2024-02-23 12:35:14,15.08795835,0.0001939,53.2188,129.3273,79.498,280.6231,0.00076913,0.00011959,0.0,0 STARLINK-4261,1 52868U 22062AQ  24054.52447217  .00011959  00000-0  76913-3 0  9992,2 52868  53.2188 129.3273 0001939  79.4980 280.6231 15.08795835 93436,6918.015,95.44,541.222,538.539,0.0
52868.0,STARLINK-4261,PAYLOAD,2024-02-23 22:07:32,15.0883698,0.0001676,53.2183,127.5429,77.4371,282.6809,0.0001266,1.727e-05,0.0,0 STARLINK-4261,1 52868U 22062AQ  24054.92190668  .00001727  00000-0  12660-3 0  9992,2 52868  53.2183 127.5429 0001676  77.4371 282.6809 15.08836980 93490,6917.89,95.438,540.914,538.595,0.0
52868.0,STARLINK-4261,PAYLOAD,2024-02-24 04:29:05,15.08840034,0.0001618,53.2182,126.3563,94.709,265.4087,-2.0762e-06,-3.21e-06,0.0,0 STARLINK-4261,1 52868U 22062AQ  24055.18686882 -.00000321  00000-0 -20762-5 0  9994,2 52868  53.2182 126.3563 0001618  94.7090 265.4087 15.08840034 94023,6917.88,95.438,540.865,538.626,0.0
52868.0,STARLINK-4261,PAYLOAD,2024-02-24 10:50:38,15.08837473,0.0001471,53.2167,125.1626,90.5995,269.5166,-2.0012e-05,-6.06e-06,0.0,0 STARLINK-4261,1 52868U 22062AQ  24055.45183071 -.00000606  00000-0 -20012-4 0  9999,2 52868  53.2167 125.1626 0001471  90.5995 269.5166 15.08837473 93573,6917.888,95.438,540.771,538.735,0.0
52868.0,STARLINK-4261,PAYLOAD,2024-02-25 10:41:24,15.08850883,0.0001511,53.2162,120.7005,91.6239,268.4926,4.5341e-05,4.34e-06,0.0,0 STARLINK-4261,1 52868U 22062AQ  24056.44541870  .00000434  00000-0  45341-4 0  9993,2 52868  53.2162 120.7005 0001511  91.6239 268.4926 15.08850883 94212,6917.847,95.437,540.757,538.667,0.0
52868.0,STARLINK-4261,PAYLOAD,2024-02-25 13:52:10,15.08855285,0.0001537,53.2162,120.1054,90.57,269.5468,8.102e-05,1.002e-05,0.0,0 STARLINK-4261,1 52868U 22062AQ  24056.57789429  .00001002  00000-0  81020-4 0  9997,2 52868  53.2162 120.1054 0001537  90.5700 269.5468 15.08855285 93740,6917.834,95.437,540.762,538.635,0.0
52868.0,STARLINK-4261,PAYLOAD,2024-02-25 21:49:05,15.08851517,0.000162,53.2173,118.619,88.5545,271.5632,2.1371e-05,5.2e-07,0.0,0 STARLINK-4261,1 52868U 22062AQ  24056.90909644  .00000052  00000-0  21371-4 0  9994,2 52868  53.2173 118.6190 0001620  88.5545 271.5632 15.08851517 93797,6917.845,95.437,540.831,538.589,0.0
52868.0,STARLINK-4261,PAYLOAD,2024-02-26 04:10:39,15.08837763,0.0001847,53.2155,117.4301,93.6029,266.5174,9.7981e-05,1.272e-05,0.0,0 STARLINK-4261,1 52868U 22062AQ  24057.17406455  .00001272  00000-0  97981-4 0  9991,2 52868  53.2155 117.4301 0001847  93.6029 266.5174 15.08837763 94325,6917.887,95.438,541.03,538.474,0.0
52868.0,STARLINK-4261,PAYLOAD,2024-02-26 08:56:48,15.08839544,0.0001815,53.2173,116.5394,90.688,269.432,9.5612e-05,1.234e-05,0.0,0 STARLINK-4261,1 52868U 22062AQ  24057.37278377  .00001234  00000-0  95612-4 0  9990,2 52868  53.2173 116.5394 0001815  90.6880 269.4320 15.08839544 93866,6917.882,95.438,541.002,538.491,0.0
52868.0,STARLINK-4261,PAYLOAD,2024-02-27 10:22:59,15.08837122,0.0001583,53.2167,111.7807,91.9533,268.164,-6.8193e-05,-1.373e-05,0.0,0 STARLINK-4261,1 52868U 22062AQ  24058.43263187 -.00001373  00000-0 -68193-4 0  9991,2 52868  53.2167 111.7807 0001583  91.9533 268.1640 15.08837122 94510,6917.889,95.438,540.849,538.659,0.0
52868.0,STARLINK-4261,PAYLOAD,2024-02-27 19:55:18,15.08841037,0.0001597,53.2172,109.997,91.9484,268.1691,-8.3381e-05,-1.615e-05,0.0,0 STARLINK-4261,1 52868U 22062AQ  24058.83007010 -.00001615  00000-0 -83381-4 0  9991,2 52868  53.2172 109.9970 0001597  91.9484 268.1691 15.08841037 94084,6917.877,95.437,540.847,538.637,0.0
52868.0,STARLINK-4261,PAYLOAD,2024-02-28 10:13:46,15.08836605,0.0001422,53.2166,107.3207,92.4051,267.7104,0.0001467,2.047e-05,0.0,0 STARLINK-4261,1 52868U 22062AQ  24059.42622812  .00002047  00000-0  14670-3 0  9992,2 52868  53.2166 107.3207 0001422  92.4051 267.7104 15.08836605 94174,6917.891,95.438,540.739,538.772,0.0
52868.0,STARLINK-4261,PAYLOAD,2024-02-28 19:46:04,15.08836931,0.0001434,53.2168,105.5368,93.9418,266.1738,0.0001165,1.566e-05,0.0,0 STARLINK-4261,1 52868U 22062AQ  24059.82366877  .00001566  00000-0  11650-3 0  9992,2 52868  53.2168 105.5368 0001434  93.9418 266.1738 15.08836931 94729,6917.89,95.438,540.747,538.763,0.0
52868.0,STARLINK-4261,PAYLOAD,2024-02-29 10:04:34,15.08828476,0.0001556,53.2176,102.8609,95.0147,265.1023,6.0594e-05,6.76e-06,0.0,0 STARLINK-4261,1 52868U 22062AQ  24060.41983992  .00000676  00000-0  60594-4 0  9995,2 52868  53.2176 102.8609 0001556  95.0147 265.1023 15.08828476 94814,6917.916,95.438,540.857,538.704,0.0
52868.0,STARLINK-4261,PAYLOAD,2024-02-29 19:36:52,15.08832578,0.000157,53.2178,101.0766,93.255,266.8622,5.9379e-05,6.57e-06,0.0,0 STARLINK-4261,1 52868U 22062AQ  24060.81727919  .00000657  00000-0  59379-4 0  9992,2 52868  53.2178 101.0766 0001570  93.2550 266.8622 15.08832578 94388,6917.903,95.438,540.854,538.682,0.0
52868.0,STARLINK-4261,PAYLOAD,2024-03-01 09:55:21,15.08839482,0.0001639,53.2183,98.4008,92.7229,267.3951,2.7084e-05,1.43e-06,0.0,0 STARLINK-4261,1 52868U 22062AQ  24061.41343761  .00000143  00000-0  27084-4 0  9996,2 52868  53.2183  98.4008 0001639  92.7229 267.3951 15.08839482 94477,6917.882,95.438,540.881,538.613,0.0
52868.0,STARLINK-4261,PAYLOAD,2024-03-01 19:27:39,15.08843065,0.0001654,53.2183,96.6162,88.8318,271.2863,5.83e-05,6.4e-06,0.0,0 STARLINK-4261,1 52868U 22062AQ  24061.81087430  .00000640  00000-0  58300-4 0  9995,2 52868  53.2183  96.6162 0001654  88.8318 271.2863 15.08843065 94535,6917.871,95.437,540.88,538.592,0.0
52868.0,STARLINK-4261,PAYLOAD,2024-03-02 08:10:44,15.08846618,0.0001564,53.217,94.2365,89.0619,271.0552,0.00016471,2.335e-05,0.0,0 STARLINK-4261,1 52868U 22062AQ  24062.34078870  .00002335  00000-0  16471-3 0  9997,2 52868  53.2170  94.2365 0001564  89.0619 271.0552 15.08846618 95101,6917.86,95.437,540.807,538.643,0.0
52868.0,STARLINK-4261,PAYLOAD,2024-03-03 01:39:59,15.08838789,0.0001509,53.2155,90.9658,89.2997,270.8168,6.8159e-05,7.97e-06,0.0,0 STARLINK-4261,1 52868U 22062AQ  24063.06943589  .00000797  00000-0  68159-4 0  9996,2 52868  53.2155  90.9658 0001509  89.2997 270.8168 15.08838789 95214,6917.884,95.438,540.793,538.705,0.0
52868.0,STARLINK-4261,PAYLOAD,2024-03-03 08:01:32,15.08836215,0.0001661,53.2169,89.7759,88.3266,271.7916,3.7172e-05,3.04e-06,0.0,0 STARLINK-4261,1 52868U 22062AQ  24063.33439966  .00000304  00000-0  37172-4 0  9990,2 52868  53.2169  89.7759 0001661  88.3266 271.7916 15.08836215 94767,6917.892,95.438,540.906,538.608,0.0
52868.0,STARLINK-4261,PAYLOAD,2024-03-04 04:41:31,15.08849821,0.0001708,53.2172,85.9091,88.8443,271.2744,2.4282e-05,9.8e-07,0.0,0 STARLINK-4261,1 52868U 22062AQ  24064.19550886  .00000098  00000-0  24282-4 0  9998,2 52868  53.2172  85.9091 0001708  88.8443 271.2744 15.08849821 95382,6917.85,95.437,540.897,538.534,0.0
52868.0,STARLINK-4261,PAYLOAD,2024-03-04 11:03:04,15.08818858,0.0001931,53.2178,84.7178,98.404,261.7171,0.00055443,8.542e-05,0.0,0 STARLINK-4261,1 52868U 22062AQ  24064.46047227  .00008542  00000-0  55443-3 0  9992,2 52868  53.2178  84.7178 0001931  98.4040 261.7171 15.08818858 95428,6917.945,95.439,541.146,538.474,0.0
52868.0,STARLINK-4261,PAYLOAD,2024-03-05 10:53:52,15.08827978,0.0001475,53.2173,80.2593,92.7375,267.3786,-1.2582e-05,-4.88e-06,0.0,0 STARLINK-4261,1 52868U 22062AQ  24065.45408444 -.00000488  00000-0 -12582-4 0  9995,2 52868  53.2173  80.2593 0001475  92.7375 267.3786 15.08827978 95085,6917.917,95.438,540.803,538.762,0.0
52868.0,STARLINK-4261,PAYLOAD,2024-03-06 10:44:40,15.08827394,0.0001495,53.2177,75.7984,93.6696,266.4468,-0.00012014,-2.199e-05,0.0,0 STARLINK-4261,1 52868U 22062AQ  24066.44769511 -.00002199  00000-0 -12014-3 0  9990,2 52868  53.2177  75.7984 0001495  93.6696 266.4468 15.08827394 95236,6917.919,95.438,540.818,538.75,0.0
52868.0,STARLINK-4261,PAYLOAD,2024-03-07 04:13:55,15.0881952,0.0001447,53.2178,72.5291,97.9447,262.1709,0.00015885,2.24e-05,0.0,0 STARLINK-4261,1 52868U 22062AQ  24067.17633949  .00002240  00000-0  15885-3 0  9990,2 52868  53.2178  72.5291 0001447  97.9447 262.1709 15.08819520 95830,6917.943,95.439,540.809,538.807,0.0
52868.0,STARLINK-4261,PAYLOAD,2024-03-07 10:35:27,15.0882976,0.0001546,53.2179,71.3385,96.9771,263.1397,0.00023113,3.391e-05,0.0,0 STARLINK-4261,1 52868U 22062AQ  24067.44129587  .00003391  00000-0  23113-3 0  9999,2 52868  53.2179  71.3385 0001546  96.9771 263.1397 15.08829760 95382,6917.912,95.438,540.846,538.707,0.0
